{
  "type": "FeatureCollection",
  "features": [
    {
      "type": "Feature",
      "properties": {
        "norad_id": 40115,
        "name": "WORLDVIEW-3 (WV-3)",
        "group": "resource",
        "lat": 8.148836650421488,
        "lon": 55.79376911910939,
        "alt_km": 617.0927015199168,
        "timestamp": "2025-12-10T14:53:36.779716+00:00",
        "meta_object_name": "WORLDVIEW-3 (WV-3)",
        "meta_object_id": "2014-048A",
        "meta_epoch": "2025-12-10T06:46:24.806784",
        "meta_mean_motion": 14.85502006,
        "meta_eccentricity": 0.00045574,
        "meta_inclination": 97.8618,
        "meta_ra_of_asc_node": 56.5934,
        "meta_arg_of_pericenter": 193.1152,
        "meta_mean_anomaly": 166.9945,
        "meta_ephemeris_type": 0,
        "meta_classification_type": "U",
        "meta_norad_cat_id": 40115,
        "meta_element_set_no": 999,
        "meta_rev_at_epoch": 61387,
        "meta_bstar": 0.00022167249,
        "meta_mean_motion_dot": 1.86e-05,
        "meta_mean_motion_ddot": 0,
        "tle_line1": "1 40115U 14048A   25344.28223156  .00001860  00000+0  22167-3 0  9990",
        "tle_line2": "2 40115  97.8618  56.5934 0004557 193.1152 166.9945 14.85502006613873"
      },
      "geometry": {
        "type": "Point",
        "coordinates": [
          55.79376911910939,
          8.148836650421488
        ]
      }
    },
    {
      "type": "Feature",
      "properties": {
        "norad_id": 40118,
        "name": "GAOFEN-2",
        "group": "resource",
        "lat": -42.70927926195147,
        "lon": -143.71032056841952,
        "alt_km": 635.5739957059777,
        "timestamp": "2025-12-10T14:53:36.779725+00:00",
        "meta_object_name": "GAOFEN-2",
        "meta_object_id": "2014-049A",
        "meta_epoch": "2025-12-10T07:24:06.325056",
        "meta_mean_motion": 14.80600393,
        "meta_eccentricity": 0.00084606,
        "meta_inclination": 98.0383,
        "meta_ra_of_asc_node": 43.4724,
        "meta_arg_of_pericenter": 119.4907,
        "meta_mean_anomaly": 240.7149,
        "meta_ephemeris_type": 0,
        "meta_classification_type": "U",
        "meta_norad_cat_id": 40118,
        "meta_element_set_no": 999,
        "meta_rev_at_epoch": 61128,
        "meta_bstar": 0.00012500748,
        "meta_mean_motion_dot": 9.06e-06,
        "meta_mean_motion_ddot": 0,
        "tle_line1": "1 40118U 14049A   25344.30840654  .00000906  00000+0  12501-3 0  9996",
        "tle_line2": "2 40118  98.0383  43.4724 0008460 119.4907 240.7149 14.80600393611289"
      },
      "geometry": {
        "type": "Point",
        "coordinates": [
          -143.71032056841952,
          -42.70927926195147
        ]
      }
    },
    {
      "type": "Feature",
      "properties": {
        "norad_id": 40143,
        "name": "YAOGAN-21",
        "group": "resource",
        "lat": -38.45931765097333,
        "lon": -157.71806569139088,
        "alt_km": 508.1159601389236,
        "timestamp": "2025-12-10T14:53:36.779734+00:00",
        "meta_object_name": "YAOGAN-21",
        "meta_object_id": "2014-053A",
        "meta_epoch": "2025-12-10T07:37:55.792704",
        "meta_mean_motion": 15.23635036,
        "meta_eccentricity": 0.000992,
        "meta_inclination": 97.1758,
        "meta_ra_of_asc_node": 27.7357,
        "meta_arg_of_pericenter": 49.077,
        "meta_mean_anomaly": 311.1325,
        "meta_ephemeris_type": 0,
        "meta_classification_type": "U",
        "meta_norad_cat_id": 40143,
        "meta_element_set_no": 999,
        "meta_rev_at_epoch": 62617,
        "meta_bstar": 0.00046307538,
        "meta_mean_motion_dot": 0.00011049,
        "meta_mean_motion_ddot": 0,
        "tle_line1": "1 40143U 14053A   25344.31800686  .00011049  00000+0  46308-3 0  9993",
        "tle_line2": "2 40143  97.1758  27.7357 0009920  49.0770 311.1325 15.23635036626171"
      },
      "geometry": {
        "type": "Point",
        "coordinates": [
          -157.71806569139088,
          -38.45931765097333
        ]
      }
    },
    {
      "type": "Feature",
      "properties": {
        "norad_id": 40275,
        "name": "YAOGAN-22",
        "group": "resource",
        "lat": -18.556888930135095,
        "lon": -55.64347478505362,
        "alt_km": 1204.0594243389041,
        "timestamp": "2025-12-10T14:53:36.779744+00:00",
        "meta_object_name": "YAOGAN-22",
        "meta_object_id": "2014-063A",
        "meta_epoch": "2025-12-10T06:35:04.748928",
        "meta_mean_motion": 13.15522547,
        "meta_eccentricity": 0.00059467,
        "meta_inclination": 100.7419,
        "meta_ra_of_asc_node": 127.6591,
        "meta_arg_of_pericenter": 254.3838,
        "meta_mean_anomaly": 105.6617,
        "meta_ephemeris_type": 0,
        "meta_classification_type": "U",
        "meta_norad_cat_id": 40275,
        "meta_element_set_no": 999,
        "meta_rev_at_epoch": 53497,
        "meta_bstar": 0.00011083219,
        "meta_mean_motion_dot": -5e-08,
        "meta_mean_motion_ddot": 0,
        "tle_line1": "1 40275U 14063A   25344.27436052 -.00000005  00000+0  11083-3 0  9990",
        "tle_line2": "2 40275 100.7419 127.6591 0005946 254.3838 105.6617 13.15522547534979"
      },
      "geometry": {
        "type": "Point",
        "coordinates": [
          -55.64347478505362,
          -18.556888930135095
        ]
      }
    },
    {
      "type": "Feature",
      "properties": {
        "norad_id": 40298,
        "name": "ASNARO",
        "group": "resource",
        "lat": -60.71937223845151,
        "lon": 73.95530472446954,
        "alt_km": 518.4807471876111,
        "timestamp": "2025-12-10T14:53:36.779753+00:00",
        "meta_object_name": "ASNARO",
        "meta_object_id": "2014-070A",
        "meta_epoch": "2025-12-10T07:15:41.819040",
        "meta_mean_motion": 15.19410544,
        "meta_eccentricity": 0.00054429,
        "meta_inclination": 97.3647,
        "meta_ra_of_asc_node": 60.3089,
        "meta_arg_of_pericenter": 128.6711,
        "meta_mean_anomaly": 231.5011,
        "meta_ephemeris_type": 0,
        "meta_classification_type": "U",
        "meta_norad_cat_id": 40298,
        "meta_element_set_no": 999,
        "meta_rev_at_epoch": 61532,
        "meta_bstar": 0.00076669307,
        "meta_mean_motion_dot": 0.00016196,
        "meta_mean_motion_ddot": 0,
        "tle_line1": "1 40298U 14070A   25344.30256735  .00016196  00000+0  76669-3 0  9993",
        "tle_line2": "2 40298  97.3647  60.3089 0005442 128.6711 231.5011 15.19410544615322"
      },
      "geometry": {
        "type": "Point",
        "coordinates": [
          73.95530472446954,
          -60.71937223845151
        ]
      }
    },
    {
      "type": "Feature",
      "properties": {
        "norad_id": 40310,
        "name": "YAOGAN-24",
        "group": "resource",
        "lat": -59.73168535966715,
        "lon": -78.46272244604113,
        "alt_km": 649.7066757854509,
        "timestamp": "2025-12-10T14:53:36.779762+00:00",
        "meta_object_name": "YAOGAN-24",
        "meta_object_id": "2014-072A",
        "meta_epoch": "2025-12-10T07:18:01.507104",
        "meta_mean_motion": 14.76167065,
        "meta_eccentricity": 0.00146285,
        "meta_inclination": 98.1225,
        "meta_ra_of_asc_node": 115.3842,
        "meta_arg_of_pericenter": 145.3363,
        "meta_mean_anomaly": 214.8802,
        "meta_ephemeris_type": 0,
        "meta_classification_type": "U",
        "meta_norad_cat_id": 40310,
        "meta_element_set_no": 999,
        "meta_rev_at_epoch": 59585,
        "meta_bstar": 0.00014119282,
        "meta_mean_motion_dot": 9.25e-06,
        "meta_mean_motion_ddot": 0,
        "tle_line1": "1 40310U 14072A   25344.30418411  .00000925  00000+0  14119-3 0  9996",
        "tle_line2": "2 40310  98.1225 115.3842 0014628 145.3363 214.8802 14.76167065595857"
      },
      "geometry": {
        "type": "Point",
        "coordinates": [
          -78.46272244604113,
          -59.73168535966715
        ]
      }
    },
    {
      "type": "Feature",
      "properties": {
        "norad_id": 40336,
        "name": "CBERS 4",
        "group": "resource",
        "lat": -67.75411545013749,
        "lon": 63.70126536078031,
        "alt_km": 781.7338747099666,
        "timestamp": "2025-12-10T14:53:36.779771+00:00",
        "meta_object_name": "CBERS 4",
        "meta_object_id": "2014-079A",
        "meta_epoch": "2025-12-10T06:51:06.489792",
        "meta_mean_motion": 14.35516543,
        "meta_eccentricity": 0.00016003,
        "meta_inclination": 98.3307,
        "meta_ra_of_asc_node": 42.3861,
        "meta_arg_of_pericenter": 114.8044,
        "meta_mean_anomaly": 245.3309,
        "meta_ephemeris_type": 0,
        "meta_classification_type": "U",
        "meta_norad_cat_id": 40336,
        "meta_element_set_no": 999,
        "meta_rev_at_epoch": 57685,
        "meta_bstar": 0.00012367799,
        "meta_mean_motion_dot": 3.14e-06,
        "meta_mean_motion_ddot": 0,
        "tle_line1": "1 40336U 14079A   25344.28549178  .00000314  00000+0  12368-3 0  9999",
        "tle_line2": "2 40336  98.3307  42.3861 0001600 114.8044 245.3309 14.35516543576855"
      },
      "geometry": {
        "type": "Point",
        "coordinates": [
          63.70126536078031,
          -67.75411545013749
        ]
      }
    }
  ]
}